{
  "type": "FeatureCollection",
  "features": [
    {
      "type": "Feature",
      "properties": {
        "norad_id": 30504,
        "name": "FENGYUN 1C DEB",
        "group": "fengyun-1c-debris",
        "lat": -80.82745759432721,
        "lon": 127.51860899877819,
        "alt_km": 765.9717342743079,
        "timestamp": "2025-12-07T07:31:36.575017+00:00",
        "meta_object_name": "FENGYUN 1C DEB",
        "meta_object_id": "1999-025AHS",
        "meta_epoch": "2025-12-06T15:40:27.863328",
        "meta_mean_motion": 14.2046933,
        "meta_eccentricity": 0.01118882,
        "meta_inclination": 99.0261,
        "meta_ra_of_asc_node": 26.7084,
        "meta_arg_of_pericenter": 233.776,
        "meta_mean_anomaly": 258.057,
        "meta_ephemeris_type": 0,
        "meta_classification_type": "U",
        "meta_norad_cat_id": 30504,
        "meta_element_set_no": 999,
        "meta_rev_at_epoch": 97307,
        "meta_bstar": 0.00091359073,
        "meta_mean_motion_dot": 2.041e-05,
        "meta_mean_motion_ddot": 0,
        "tle_line1": "1 30504U 99025AHS 25340.65310027  .00002041  00000+0  91359-3 0  9991",
        "tle_line2": "2 30504  99.0261  26.7084 0111888 233.7760 258.0570 14.20469330973078"
      },
      "geometry": {
        "type": "Point",
        "coordinates": [
          127.51860899877819,
          -80.82745759432721
        ]
      }
    },
    {
      "type": "Feature",
      "properties": {
        "norad_id": 30505,
        "name": "FENGYUN 1C DEB",
        "group": "fengyun-1c-debris",
        "lat": 41.84727412719354,
        "lon": -110.99954206493034,
        "alt_km": 837.7509225832582,
        "timestamp": "2025-12-07T07:31:36.575026+00:00",
        "meta_object_name": "FENGYUN 1C DEB",
        "meta_object_id": "1999-025AHT",
        "meta_epoch": "2025-12-05T18:19:11.748288",
        "meta_mean_motion": 14.2195601,
        "meta_eccentricity": 0.00630396,
        "meta_inclination": 98.9271,
        "meta_ra_of_asc_node": 59.3396,
        "meta_arg_of_pericenter": 261.9625,
        "meta_mean_anomaly": 224.5063,
        "meta_ephemeris_type": 0,
        "meta_classification_type": "U",
        "meta_norad_cat_id": 30505,
        "meta_element_set_no": 999,
        "meta_rev_at_epoch": 96824,
        "meta_bstar": 0.003198707,
        "meta_mean_motion_dot": 7.166e-05,
        "meta_mean_motion_ddot": 0,
        "tle_line1": "1 30505U 99025AHT 25339.76333042  .00007166  00000+0  31987-2 0  9997",
        "tle_line2": "2 30505  98.9271  59.3396 0063039 261.9625 224.5063 14.21956010968248"
      },
      "geometry": {
        "type": "Point",
        "coordinates": [
          -110.99954206493034,
          41.84727412719354
        ]
      }
    },
    {
      "type": "Feature",
      "properties": {
        "norad_id": 30506,
        "name": "FENGYUN 1C DEB",
        "group": "fengyun-1c-debris",
        "lat": 66.50150790549989,
        "lon": -34.219313931893,
        "alt_km": 835.4582716879931,
        "timestamp": "2025-12-07T07:31:36.575037+00:00",
        "meta_object_name": "FENGYUN 1C DEB",
        "meta_object_id": "1999-025AHU",
        "meta_epoch": "2025-12-06T18:24:53.828352",
        "meta_mean_motion": 14.08640327,
        "meta_eccentricity": 0.00705929,
        "meta_inclination": 98.7569,
        "meta_ra_of_asc_node": 346.0137,
        "meta_arg_of_pericenter": 4.87,
        "meta_mean_anomaly": 173.6032,
        "meta_ephemeris_type": 0,
        "meta_classification_type": "U",
        "meta_norad_cat_id": 30506,
        "meta_element_set_no": 999,
        "meta_rev_at_epoch": 96737,
        "meta_bstar": 0.00062313196,
        "meta_mean_motion_dot": 1.054e-05,
        "meta_mean_motion_ddot": 0,
        "tle_line1": "1 30506U 99025AHU 25340.76728968  .00001054  00000+0  62313-3 0  9993",
        "tle_line2": "2 30506  98.7569 346.0137 0070592   4.8700 173.6032 14.08640327967375"
      },
      "geometry": {
        "type": "Point",
        "coordinates": [
          -34.219313931893,
          66.50150790549989
        ]
      }
    },
    {
      "type": "Feature",
      "properties": {
        "norad_id": 30507,
        "name": "FENGYUN 1C DEB",
        "group": "fengyun-1c-debris",
        "lat": 79.97563781605203,
        "lon": -70.34886803655398,
        "alt_km": 851.5021795757712,
        "timestamp": "2025-12-07T07:31:36.575047+00:00",
        "meta_object_name": "FENGYUN 1C DEB",
        "meta_object_id": "1999-025AHV",
        "meta_epoch": "2025-12-05T04:24:13.504032",
        "meta_mean_motion": 14.13121597,
        "meta_eccentricity": 0.01282841,
        "meta_inclination": 99.0138,
        "meta_ra_of_asc_node": 43.6123,
        "meta_arg_of_pericenter": 197.4943,
        "meta_mean_anomaly": 227.815,
        "meta_ephemeris_type": 0,
        "meta_classification_type": "U",
        "meta_norad_cat_id": 30507,
        "meta_element_set_no": 999,
        "meta_rev_at_epoch": 96391,
        "meta_bstar": 0.0024463716,
        "meta_mean_motion_dot": 4.902e-05,
        "meta_mean_motion_ddot": 0,
        "tle_line1": "1 30507U 99025AHV 25339.18348963  .00004902  00000+0  24464-2 0  9990",
        "tle_line2": "2 30507  99.0138  43.6123 0128284 197.4943 227.8150 14.13121597963915"
      },
      "geometry": {
        "type": "Point",
        "coordinates": [
          -70.34886803655398,
          79.97563781605203
        ]
      }
    },
    {
      "type": "Feature",
      "properties": {
        "norad_id": 30509,
        "name": "FENGYUN 1C DEB",
        "group": "fengyun-1c-debris",
        "lat": 15.734284549301018,
        "lon": -148.9102481819589,
        "alt_km": 834.0972198054942,
        "timestamp": "2025-12-07T07:31:36.575057+00:00",
        "meta_object_name": "FENGYUN 1C DEB",
        "meta_object_id": "1999-025AHX",
        "meta_epoch": "2025-12-06T14:38:41.679168",
        "meta_mean_motion": 14.07589087,
        "meta_eccentricity": 0.01011376,
        "meta_inclination": 98.4647,
        "meta_ra_of_asc_node": 212.8349,
        "meta_arg_of_pericenter": 80.7504,
        "meta_mean_anomaly": 333.8683,
        "meta_ephemeris_type": 0,
        "meta_classification_type": "U",
        "meta_norad_cat_id": 30509,
        "meta_element_set_no": 999,
        "meta_rev_at_epoch": 95636,
        "meta_bstar": 0.0030050334,
        "meta_mean_motion_dot": 5.277e-05,
        "meta_mean_motion_ddot": 0,
        "tle_line1": "1 30509U 99025AHX 25340.61020462  .00005277  00000+0  30050-2 0  9997",
        "tle_line2": "2 30509  98.4647 212.8349 0101137  80.7504 333.8683 14.07589087956365"
      },
      "geometry": {
        "type": "Point",
        "coordinates": [
          -148.9102481819589,
          15.734284549301018
        ]
      }
    },
    {
      "type": "Feature",
      "properties": {
        "norad_id": 30510,
        "name": "FENGYUN 1C DEB",
        "group": "fengyun-1c-debris",
        "lat": -33.83635797663911,
        "lon": -0.5629387655134142,
        "alt_km": 901.8783622101319,
        "timestamp": "2025-12-07T07:31:36.575067+00:00",
        "meta_object_name": "FENGYUN 1C DEB",
        "meta_object_id": "1999-025AHY",
        "meta_epoch": "2025-12-06T23:28:54.441696",
        "meta_mean_motion": 14.12807897,
        "meta_eccentricity": 0.00786026,
        "meta_inclination": 99.2447,
        "meta_ra_of_asc_node": 352.8231,
        "meta_arg_of_pericenter": 182.3844,
        "meta_mean_anomaly": 238.8688,
        "meta_ephemeris_type": 0,
        "meta_classification_type": "U",
        "meta_norad_cat_id": 30510,
        "meta_element_set_no": 999,
        "meta_rev_at_epoch": 96493,
        "meta_bstar": 0.002248649,
        "meta_mean_motion_dot": 4.257e-05,
        "meta_mean_motion_ddot": 0,
        "tle_line1": "1 30510U 99025AHY 25340.97840789  .00004257  00000+0  22486-2 0  9991",
        "tle_line2": "2 30510  99.2447 352.8231 0078602 182.3844 238.8688 14.12807897964934"
      },
      "geometry": {
        "type": "Point",
        "coordinates": [
          -0.5629387655134142,
          -33.83635797663911
        ]
      }
    },
    {
      "type": "Feature",
      "properties": {
        "norad_id": 30514,
        "name": "FENGYUN 1C DEB",
        "group": "fengyun-1c-debris",
        "lat": 49.60522738039353,
        "lon": -5.030412713803803,
        "alt_km": 708.1877616273969,
        "timestamp": "2025-12-07T07:31:36.575077+00:00",
        "meta_object_name": "FENGYUN 1C DEB",
        "meta_object_id": "1999-025AJC",
        "meta_epoch": "2025-12-06T17:53:59.474400",
        "meta_mean_motion": 14.34327608,
        "meta_eccentricity": 0.01745923,
        "meta_inclination": 98.4133,
        "meta_ra_of_asc_node": 4.4331,
        "meta_arg_of_pericenter": 111.8498,
        "meta_mean_anomaly": 250.1358,
        "meta_ephemeris_type": 0,
        "meta_classification_type": "U",
        "meta_norad_cat_id": 30514,
        "meta_element_set_no": 999,
        "meta_rev_at_epoch": 98139,
        "meta_bstar": 0.00094800596,
        "meta_mean_motion_dot": 3.118e-05,
        "meta_mean_motion_ddot": 0,
        "tle_line1": "1 30514U 99025AJC 25340.74582725  .00003118  00000+0  94801-3 0  9999",
        "tle_line2": "2 30514  98.4133   4.4331 0174592 111.8498 250.1358 14.34327608981390"
      },
      "geometry": {
        "type": "Point",
        "coordinates": [
          -5.030412713803803,
          49.60522738039353
        ]
      }
    }
  ]
}